[{"OBJECT_NAME":"NEOSSAT","OBJECT_ID":"2013-009D","EPOCH":"2026-03-09T11:41:06.061344","MEAN_MOTION":14.35785569,"ECCENTRICITY":0.00110325,"INCLINATION":98.4141,"RA_OF_ASC_NODE":250.8974,"ARG_OF_PERICENTER":177.9575,"MEAN_ANOMALY":182.1658,"EPHEMERIS_TYPE":0,"CLASSIFICATION_TYPE":"U","NORAD_CAT_ID":39089,"ELEMENT_SET_NO":999,"REV_AT_EPOCH":68243,"BSTAR":0.00010834728,"MEAN_MOTION_DOT":2.71e-6,"MEAN_MOTION_DDOT":0},{"OBJECT_NAME":"CZ-6A DEB","OBJECT_ID":"2022-151WE","EPOCH":"2026-03-09T02:33:05.538240","MEAN_MOTION":14.55661756,"ECCENTRICITY":0.00899926,"INCLINATION":98.6272,"RA_OF_ASC_NODE":118.6853,"ARG_OF_PERICENTER":261.6542,"MEAN_ANOMALY":97.4444,"EPHEMERIS_TYPE":0,"CLASSIFICATION_TYPE":"U","NORAD_CAT_ID":55213,"ELEMENT_SET_NO":999,"REV_AT_EPOCH":16956,"BSTAR":0.0018489114,"MEAN_MOTION_DOT":8.484e-5,"MEAN_MOTION_DDOT":0}]
